NETSAT-3                
1 46505U 20068V   26177.01664231  .00020846  00000+0  47493-3 0  9991
2 46505  97.8652 184.1731 0003150 319.6519  40.4493 15.42967815317044
NETSAT-1                
1 46506U 20068W   26176.93738904  .00013918  00000+0  41434-3 0  9992
2 46506  97.8743 178.3152 0003946   3.7856 356.3415 15.34831232316648
NETSAT-2                
1 46507U 20068X   26176.96658838  .00024970  00000+0  50666-3 0  9990
2 46507  97.8614 185.8409 0002112 354.2562   5.8662 15.46358666317094
TIANQI-6                
1 46810U 20076D   26176.88177932  .00004063  00000+0  26552-3 0  9996
2 46810  35.0003 355.1012 0010965 248.8575 111.0963 15.07236925309899
KSM1-C                  
1 46906U 20081B   26176.98821028  .00011019  00000+0  41066-3 0  9997
2 46906  36.8968   4.6025 0003585 295.0814  64.9563 15.26877225310512
KSM1-D                  
1 46907U 20081C   26177.00164197  .00009072  00000+0  36024-3 0  9993
2 46907  36.8980  13.7006 0004668 319.2624  40.7775 15.24839001310445
KSM1-A                  
1 46912U 20081H   26176.99596587  .00010229  00000+0  39073-3 0  9991
2 46912  36.8982   7.0144 0003269   0.4802 359.5950 15.26089534310520
R2                      
1 46913U 20081J   26176.95496793  .00008809  00000+0  34241-3 0  9999
2 46913  36.8983   7.2950 0008134 349.4896  10.5682 15.25545785313325
KSM1-B                  
1 46914U 20081K   26176.94083979  .00009445  00000+0  37722-3 0  9991
2 46914  36.9036  14.7008 0005938 343.0678  16.9872 15.24627474313528
GONETS-M 20             
1 47227U 20091A   26177.18267494 -.00000007  00000+0 -12447-3 0  9997
2 47227  82.5046 296.8440 0021592 158.6327 201.5659 12.42893984252190
GONETS-M 21             
1 47228U 20091B   26177.15658012  .00000009  00000+0 -78814-5 0  9998
2 47228  82.4970 295.5618 0015197 171.4657 188.6683 12.42887199252184
GONETS-M 22             
1 47229U 20091C   26177.12964189  .00000032  00000+0  15905-3 0  9996
2 47229  82.5028 296.4813 0022518 154.2314 205.9892 12.42893382252132
CUBEL                   
1 47448U 21006AM  26177.12080317  .00017095  00000+0  40887-3 0  9992
2 47448  97.2333 227.6210 0007901 135.5276 224.6606 15.41506228301130
ARKTIKA-M 1             
1 47719U 21016A   26175.46896265 -.00000298  00000+0  00000+0 0  9993
2 47719  63.2470  56.5720 7291000 269.9787  14.5750  2.00620016 38936
STARLINK-2342           
1 47883U 21021Z   26177.14409500  .00217984  00000+0  93149-3 0  9991
2 47883  53.1534 103.0795 0002762 191.6597 168.4364 15.84043264293321
GRUS-1B                 
1 47934U 21022C   26177.18958431  .00000728  00000+0  65135-4 0  9996
2 47934  97.5377  60.0919 0014702 292.1938  67.7725 14.98737203287241
UNISAT-7                
1 47945U 21022P   26176.73328911  .00017658  00000+0  43354-3 0  9990
2 47945  97.3886  81.7473 0010480  53.3061 306.9147 15.40686367291179
GLOBAL-9                
1 47971U 21023G   26176.52001568  .00021767  00000+0  42903-3 0  9998
2 47971  44.9792 203.6803 0003741   4.6600 355.4325 15.46885538296230
AII-BRAVO               
1 48270U 21034C   26176.67318944  .00004522  00000+0  33559-3 0  9995
2 48270  97.5629 231.3913 0004324 216.9031 143.1898 15.03540408280899
TYVAK-182A              
1 48271U 21034D   26177.09953256  .00005686  00000+0  39159-3 0  9998
2 48271  97.5729 235.8620 0004390 307.8822  52.2007 15.06244392281176
CSS (TIANHE)            
1 48274U 21035A   26177.18993486  .00025493  00000+0  29528-3 0  9998
2 48274  41.4689 267.1993 0007960 154.0990 206.0249 15.61197983294576
TYVAK-0130              
1 48606U 21041BF  26176.68133089  .00009701  00000+0  36587-3 0  9990
2 48606  52.9954 346.6357 0009780 190.3019 169.7780 15.27674013281680
HAIYANG-2D              
1 48621U 21043A   26177.18475394 -.00000132  00000+0 -46069-4 0  9991
2 48621  65.9993 282.2988 0011508 267.7475  92.2275 13.83371387257797
2021-050D               
1 48843U 21050D   26177.20326671  .00006373  00000+0  27057-3 0  9997
2 48843  97.3340 253.0332 0004400 219.5052 140.5865 15.23414979280335
TYVAK-0173              
1 48892U 21059P   26177.17838372  .00001635  00000+0  21049-3 0  9993
2 48892  96.0082 251.3002 0009136  11.6357 348.5070 14.81917104269575
MANDRAKE 2 ABLE         
1 48907U 21059AE  26176.98921729  .00023803  00000+0  35197-3 0  9997
2 48907  97.7029   7.4469 0003760 328.2411  31.8615 15.55314127278499
MANDRAKE 2 BAKER        
1 48908U 21059AF  26177.08726110  .00030232  00000+0  37486-3 0  9994
2 48908  97.6999  10.4865 0002236 324.1665  35.9441 15.60003329278680
PACE-1                  
1 48909U 21059AG  26177.08101135  .00105390  00000+0  52976-3 0  9998
2 48909  97.6745  16.2358 0001976 226.4450 133.6653 15.81406317279204
YAM-3                   
1 48915U 21059AN  26176.98407907  .00013128  00000+0  24657-3 0  9991
2 48915  97.6989   4.5157 0004092 337.8607  22.2465 15.48738561278352
