OBJECT_NAME,OBJECT_ID,EPOCH,MEAN_MOTION,ECCENTRICITY,INCLINATION,RA_OF_ASC_NODE,ARG_OF_PERICENTER,MEAN_ANOMALY,EPHEMERIS_TYPE,CLASSIFICATION_TYPE,NORAD_CAT_ID,ELEMENT_SET_NO,REV_AT_EPOCH,BSTAR,MEAN_MOTION_DOT,MEAN_MOTION_DDOT
NETSAT-3,2020-068V,2026-06-26T00:23:57.895584,15.42967815,.000315,97.8652,184.1731,319.6519,40.4493,0,U,46505,999,31704,.47493E-3,.20846E-3,0
NETSAT-1,2020-068W,2026-06-25T22:29:50.413056,15.34831232,.0003946,97.8743,178.3152,3.7856,356.3415,0,U,46506,999,31664,.41434E-3,.13918E-3,0
NETSAT-2,2020-068X,2026-06-25T23:11:53.236032,15.46358666,.0002112,97.8614,185.8409,354.2562,5.8662,0,U,46507,999,31709,.50666E-3,.2497E-3,0
TIANQI-6,2020-076D,2026-06-25T21:09:45.733248,15.07236925,.0010965,35.0003,355.1012,248.8575,111.0963,0,U,46810,999,30989,.26552E-3,.4063E-4,0
KSM1-C,2020-081B,2026-06-25T23:43:01.368192,15.26877225,.0003585,36.8968,4.6025,295.0814,64.9563,0,U,46906,999,31051,.41066E-3,.11019E-3,0
KSM1-D,2020-081C,2026-06-26T00:02:21.866208,15.24839001,.0004668,36.8980,13.7006,319.2624,40.7775,0,U,46907,999,31044,.36024E-3,.9072E-4,0
KSM1-A,2020-081H,2026-06-25T23:54:11.451168,15.26089534,.0003269,36.8982,7.0144,0.4802,359.5950,0,U,46912,999,31052,.39073E-3,.10229E-3,0
R2,2020-081J,2026-06-25T22:55:09.229152,15.25545785,.0008134,36.8983,7.2950,349.4896,10.5682,0,U,46913,999,31332,.34241E-3,.8809E-4,0
KSM1-B,2020-081K,2026-06-25T22:34:48.557856,15.24627474,.0005938,36.9036,14.7008,343.0678,16.9872,0,U,46914,999,31352,.37722E-3,.9445E-4,0
GONETS-M 20,2020-091A,2026-06-26T04:23:03.114816,12.42893984,.0021592,82.5046,296.8440,158.6327,201.5659,0,U,47227,999,25219,-.12447E-3,-.7E-7,0
GONETS-M 21,2020-091B,2026-06-26T03:45:28.522368,12.42887199,.0015197,82.4970,295.5618,171.4657,188.6683,0,U,47228,999,25218,-.78814E-5,.9E-7,0
GONETS-M 22,2020-091C,2026-06-26T03:06:41.059296,12.42893382,.0022518,82.5028,296.4813,154.2314,205.9892,0,U,47229,999,25213,.15905E-3,.32E-6,0
CUBEL,2021-006AM,2026-06-26T02:53:57.393888,15.41506228,.0007901,97.2333,227.6210,135.5276,224.6606,0,U,47448,999,30113,.40887E-3,.17095E-3,0
ARKTIKA-M 1,2021-016A,2026-06-24T11:15:18.372960,2.00620016,.7291,63.2470,56.5720,269.9787,14.5750,0,U,47719,999,3893,0,-.298E-5,0
STARLINK-2342,2021-021Z,2026-06-26T03:27:29.808000,15.84043264,.0002762,53.1534,103.0795,191.6597,168.4364,0,U,47883,999,29332,.93149E-3,.217984E-2,0
GRUS-1B,2021-022C,2026-06-26T04:33:00.084384,14.98737203,.0014702,97.5377,60.0919,292.1938,67.7725,0,U,47934,999,28724,.65135E-4,.728E-5,0
UNISAT-7,2021-022P,2026-06-25T17:35:56.179104,15.40686367,.001048,97.3886,81.7473,53.3061,306.9147,0,U,47945,999,29117,.43354E-3,.17658E-3,0
GLOBAL-9,2021-023G,2026-06-25T12:28:49.354752,15.46885538,.0003741,44.9792,203.6803,4.6600,355.4325,0,U,47971,999,29623,.42903E-3,.21767E-3,0
AII-BRAVO,2021-034C,2026-06-25T16:09:23.567616,15.03540408,.0004324,97.5629,231.3913,216.9031,143.1898,0,U,48270,999,28089,.33559E-3,.4522E-4,0
TYVAK-182A,2021-034D,2026-06-26T02:23:19.613184,15.06244392,.000439,97.5729,235.8620,307.8822,52.2007,0,U,48271,999,28117,.39159E-3,.5686E-4,0
CSS (TIANHE),2021-035A,2026-06-26T04:33:30.371904,15.61197983,.000796,41.4689,267.1993,154.0990,206.0249,0,U,48274,999,29457,.29528E-3,.25493E-3,0
TYVAK-0130,2021-041BF,2026-06-25T16:21:06.988896,15.27674013,.000978,52.9954,346.6357,190.3019,169.7780,0,U,48606,999,28168,.36587E-3,.9701E-4,0
HAIYANG-2D,2021-043A,2026-06-26T04:26:02.740416,13.83371387,.0011508,65.9993,282.2988,267.7475,92.2275,0,U,48621,999,25779,-.46069E-4,-.132E-5,0
2021-050D,2021-050D,2026-06-26T04:52:42.243744,15.23414979,.00044,97.3340,253.0332,219.5052,140.5865,0,U,48843,999,28033,.27057E-3,.6373E-4,0
TYVAK-0173,2021-059P,2026-06-26T04:16:52.353408,14.81917104,.0009136,96.0082,251.3002,11.6357,348.5070,0,U,48892,999,26957,.21049E-3,.1635E-4,0
MANDRAKE 2 ABLE,2021-059AE,2026-06-25T23:44:28.373856,15.55314127,.000376,97.7029,7.4469,328.2411,31.8615,0,U,48907,999,27849,.35197E-3,.23803E-3,0
MANDRAKE 2 BAKER,2021-059AF,2026-06-26T02:05:39.359040,15.60003329,.0002236,97.6999,10.4865,324.1665,35.9441,0,U,48908,999,27868,.37486E-3,.30232E-3,0
PACE-1,2021-059AG,2026-06-26T01:56:39.380640,15.81406317,.0001976,97.6745,16.2358,226.4450,133.6653,0,U,48909,999,27920,.52976E-3,.10539E-2,0
YAM-3,2021-059AN,2026-06-25T23:37:04.431648,15.48738561,.0004092,97.6989,4.5157,337.8607,22.2465,0,U,48915,999,27835,.24657E-3,.13128E-3,0
